0 INTELSAT 4A-F4
1 10024U 77041A   13281.22551076 -.00000025  00000-0  10000-3 0  1241
2 10024 014.9977 355.3216 0015592 139.8861 220.2419 00.99439196 75180
0 INTELSAT 4A-F4
1 10024U 77041A   13282.23110836 -.00000012  00000-0  10000-3 0  1255
2 10024 014.9979 355.3112 0015823 138.9867 221.1448 00.99439210 75190
0 INTELSAT 4A-F4
1 10024U 77041A   13289.27024623  .00000049  00000-0  10000-3 0  1264
2 10024 014.9983 355.2397 0015769 139.2328 220.8782 00.99440162 75267
0 INTELSAT 4A-F4
1 10024U 77041A   13290.27586304  .00000000  00000-0  10000-3 0  1284
2 10024 014.9985 355.2292 0015794 138.6427 221.4704 00.99436135 75271
0 INTELSAT 4A-F4
1 10024U 77041A   13294.29815520  .00000057  00000-0  10000-3 0  1276
2 10024 014.9990 355.1890 0015651 140.8910 219.1901 00.99441354 75311
0 INTELSAT 4A-F4
1 10024U 77041A   13294.29821281  .00000057  00000-0  10000-3 0  1288
2 10024 014.9987 355.1876 0015934 138.9354 221.1833 00.99441735 75315
